[{"OBJECT_NAME":"HIBARI","OBJECT_ID":"2021-102F","EPOCH":"2026-03-09T16:55:51.090816","MEAN_MOTION":15.29554512,"ECCENTRICITY":0.00120742,"INCLINATION":97.3381,"RA_OF_ASC_NODE":115.826,"ARG_OF_PERICENTER":186.5211,"MEAN_ANOMALY":173.5875,"EPHEMERIS_TYPE":0,"CLASSIFICATION_TYPE":"U","NORAD_CAT_ID":49400,"ELEMENT_SET_NO":999,"REV_AT_EPOCH":23897,"BSTAR":0.00042758039,"MEAN_MOTION_DOT":0.00012206,"MEAN_MOTION_DDOT":0},{"OBJECT_NAME":"STARLINK-31717","OBJECT_ID":"2024-062M","EPOCH":"2026-03-09T22:01:36.696576","MEAN_MOTION":15.3018144,"ECCENTRICITY":0.00012463,"INCLINATION":53.1585,"RA_OF_ASC_NODE":254.7919,"ARG_OF_PERICENTER":97.0222,"MEAN_ANOMALY":263.0921,"EPHEMERIS_TYPE":0,"CLASSIFICATION_TYPE":"U","NORAD_CAT_ID":59385,"ELEMENT_SET_NO":999,"REV_AT_EPOCH":10969,"BSTAR":-3.1110226e-5,"MEAN_MOTION_DOT":-1.28e-5,"MEAN_MOTION_DDOT":0}]
